GLOBALSTAR M094         
1 39074U 13005C   24347.14409675 -.00000089  00000+0  83203-4 0  9995
2 39074  51.9978  31.6075 0000472 161.4331 198.6553 12.62266024548777
GLOBALSTAR M096         
1 39075U 13005D   24346.68218977 -.00000099  00000+0  25490-4 0  9992
2 39075  52.0081  81.3813 0000860 140.6727 219.4203 12.62265503547613
GLOBALSTAR M078         
1 39076U 13005E   24346.89280991 -.00000074  00000+0  16427-3 0  9993
2 39076  51.9842 165.5020 0001861 110.6733 249.4333 12.62267610546266
GLOBALSTAR M095         
1 39077U 13005F   24346.91964011 -.00000071  00000+0  18181-3 0  9995
2 39077  51.9771 162.7130 0001464 117.5907 242.5108 12.62269637546127
GLOBALSTAR M087         
1 52888U 22064A   24346.89921349 -.00000013  00000+0  27812-3 0  9996
2 52888  51.9776 310.1159 0024928  65.5961 294.7528 13.17704089121286
